ORBCOMM-X [-]           
1 21576U 91050C   24109.14744651  .00001028  00000+0  32365-3 0  9996
2 21576  98.3932 177.3317 0004352  46.6181 313.5371 14.42444800720829
ORBCOMM FM01 [-]        
1 23545U 95017A   24109.26311712  .00013796  00000+0  18513-2 0  9995
2 23545  69.9688  45.0035 0008773 252.4606 107.5585 14.79431529549435
ORBCOMM FM02 [-]        
1 23546U 95017B   24109.28580805  .00016085  00000+0  21763-2 0  9994
2 23546  69.9693  64.3317 0010604 247.5237 112.4789 14.79021912549083
ORBCOMM FM08 [-]        
1 25112U 97084A   24109.37228826  .00005288  00000+0  16264-2 0  9996
2 25112  45.0130 241.7996 0008545 256.0228 103.9672 14.42357281379960
ORBCOMM FM10 [-]        
1 25113U 97084B   24109.44717189  .00004776  00000+0  14759-2 0  9998
2 25113  45.0142 243.2788 0006601 229.3400 130.6877 14.42278371555126
ORBCOMM FM11 [+]        
1 25114U 97084C   24109.46405123  .00004951  00000+0  15319-2 0  9991
2 25114  45.0126 243.2511 0007285 231.5021 128.5176 14.42158223380099
ORBCOMM FM12 [-]        
1 25115U 97084D   24109.49255233  .00004528  00000+0  14060-2 0  9992
2 25115  45.0133 242.8033 0006232 231.4275 128.6017 14.42119985380135
ORBCOMM FM09 [-]        
1 25116U 97084E   24109.50334273  .00004434  00000+0  13784-2 0  9995
2 25116  45.0136 243.4320 0007492 220.6316 139.3976 14.42088240380132
